[{"OBJECT_NAME":"STARLINK-3254","OBJECT_ID":"2021-125BA","EPOCH":"2026-03-09T22:17:51.254880","MEAN_MOTION":15.0885855,"ECCENTRICITY":0.00012835,"INCLINATION":53.2162,"RA_OF_ASC_NODE":238.0557,"ARG_OF_PERICENTER":86.9741,"MEAN_ANOMALY":273.1399,"EPHEMERIS_TYPE":0,"CLASSIFICATION_TYPE":"U","NORAD_CAT_ID":50204,"ELEMENT_SET_NO":999,"REV_AT_EPOCH":23682,"BSTAR":0.00020434356,"MEAN_MOTION_DOT":2.967e-5,"MEAN_MOTION_DDOT":0},{"OBJECT_NAME":"SL-18 R\/B","OBJECT_ID":"2001-007B","EPOCH":"2026-03-09T23:25:11.323200","MEAN_MOTION":15.07301441,"ECCENTRICITY":0.00085554,"INCLINATION":97.6926,"RA_OF_ASC_NODE":87.6817,"ARG_OF_PERICENTER":353.225,"MEAN_ANOMALY":6.886,"EPHEMERIS_TYPE":0,"CLASSIFICATION_TYPE":"U","NORAD_CAT_ID":26703,"ELEMENT_SET_NO":999,"REV_AT_EPOCH":64619,"BSTAR":0.00021543689,"MEAN_MOTION_DOT":3.19e-5,"MEAN_MOTION_DDOT":0}]
